start=new Date('2022-07-30T00:00:00.000Z').valueOf();
sats=[{"GP_ID":"209135410","LAUNCH_DATE":"2022-02-21","MEAN_MOTION_DDOT":"0.0000000000000","MEAN_MOTION":"15.08849509","OBJECT_ID":"2022-016M","APOAPSIS":"540.899","ARG_OF_PERICENTER":"60.8794","PERIOD":"95.437","TLE_LINE1":"1 51725U 22016M   22210.91667824 -.00042496  00000-0 -26671-2 0  9992","PERIAPSIS":"538.533","FILE":"3524848","ECCENTRICITY":"0.00017100","COUNTRY_CODE":"US","CLASSIFICATION_TYPE":"U","INCLINATION":"53.2163","OBJECT_TYPE":"PAYLOAD","NORAD_CAT_ID":"51725","SEMIMAJOR_AXIS":"6917.851","MEAN_MOTION_DOT":"-0.00042496","BSTAR":"-0.00266710000000","TIME_SYSTEM":"UTC","MEAN_ANOMALY":"151.5909","MEAN_ELEMENT_THEORY":"SGP4","SITE":"AFETR","REV_AT_EPOCH":"130","ELEMENT_SET_NO":"999","DECAY_DATE":null,"EPOCH":"2022-07-29T22:00:00.999936","RCS_SIZE":"LARGE","OBJECT_NAME":"STARLINK-3522","CENTER_NAME":"EARTH","EPHEMERIS_TYPE":"0","RA_OF_ASC_NODE":"129.3221","REF_FRAME":"TEME","TLE_LINE2":"2 51725  53.2163 129.3221 0001710  60.8794 151.5909 15.08849509  1308"},{"APOAPSIS":"541.072","ARG_OF_PERICENTER":"50.7111","PERIOD":"95.437","TLE_LINE1":"1 51726U 22016N   22210.91667824 -.00028958  00000-0 -18080-2 0  9995","OBJECT_ID":"2022-016N","MEAN_MOTION_DDOT":"0.0000000000000","MEAN_MOTION":"15.08852921","LAUNCH_DATE":"2022-02-21","GP_ID":"209134176","SITE":"AFETR","MEAN_ELEMENT_THEORY":"SGP4","REV_AT_EPOCH":"130","MEAN_MOTION_DOT":"-0.00028958","BSTAR":"-0.00180800000000","MEAN_ANOMALY":"356.7406","TIME_SYSTEM":"UTC","INCLINATION":"53.2188","CLASSIFICATION_TYPE":"U","OBJECT_TYPE":"PAYLOAD","NORAD_CAT_ID":"51726","SEMIMAJOR_AXIS":"6917.841","FILE":"3524848","PERIAPSIS":"538.340","ECCENTRICITY":"0.00019750","COUNTRY_CODE":"US","OBJECT_NAME":"STARLINK-3527","EPOCH":"2022-07-29T22:00:00.999936","RCS_SIZE":"LARGE","DECAY_DATE":null,"ELEMENT_SET_NO":"999","TLE_LINE2":"2 51726  53.2188 119.3128 0001975  50.7111 356.7406 15.08852921  1308","REF_FRAME":"TEME","EPHEMERIS_TYPE":"0","RA_OF_ASC_NODE":"119.3128","CENTER_NAME":"EARTH"},{"TIME_SYSTEM":"UTC","MEAN_ANOMALY":"195.2738","BSTAR":"-0.00335380000000","MEAN_MOTION_DOT":"-0.00053294","REV_AT_EPOCH":"130","MEAN_ELEMENT_THEORY":"SGP4","SITE":"AFETR","COUNTRY_CODE":"US","PERIAPSIS":"538.305","FILE":"3524848","ECCENTRICITY":"0.00020110","NORAD_CAT_ID":"51727","OBJECT_TYPE":"PAYLOAD","SEMIMAJOR_AXIS":"6917.832","CLASSIFICATION_TYPE":"U","INCLINATION":"53.2162","OBJECT_ID":"2022-016P","PERIOD":"95.437","TLE_LINE1":"1 51727U 22016P   22210.91667824 -.00053294  00000-0 -33538-2 0  9992","ARG_OF_PERICENTER":"57.1748","APOAPSIS":"541.088","GP_ID":"209134426","LAUNCH_DATE":"2022-02-21","MEAN_MOTION":"15.08855983","MEAN_MOTION_DDOT":"0.0000000000000","REF_FRAME":"TEME","TLE_LINE2":"2 51727  53.2162 129.3179 0002011  57.1748 195.2738 15.08855983  1302","CENTER_NAME":"EARTH","RA_OF_ASC_NODE":"129.3179","EPHEMERIS_TYPE":"0","RCS_SIZE":"LARGE","EPOCH":"2022-07-29T22:00:00.999936","OBJECT_NAME":"STARLINK-3532","ELEMENT_SET_NO":"999","DECAY_DATE":null},{"DECAY_DATE":null,"ELEMENT_SET_NO":"999","OBJECT_NAME":"STARLINK-3448","RCS_SIZE":"LARGE","EPOCH":"2022-07-29T22:00:00.999936","RA_OF_ASC_NODE":"119.3101","EPHEMERIS_TYPE":"0","CENTER_NAME":"EARTH","TLE_LINE2":"2 51728  53.2180 119.3101 0001973  55.7982  31.6526 15.08840074  1300","REF_FRAME":"TEME","MEAN_MOTION":"15.08840074","MEAN_MOTION_DDOT":"0.0000000000000","LAUNCH_DATE":"2022-02-21","GP_ID":"209135175","PERIOD":"95.438","TLE_LINE1":"1 51728U 22016Q   22210.91667824 -.00028585  00000-0 -17850-2 0  9997","ARG_OF_PERICENTER":"55.7982","APOAPSIS":"541.110","OBJECT_ID":"2022-016Q","SEMIMAJOR_AXIS":"6917.880","OBJECT_TYPE":"PAYLOAD","NORAD_CAT_ID":"51728","CLASSIFICATION_TYPE":"U","INCLINATION":"53.2180","COUNTRY_CODE":"US","PERIAPSIS":"538.380","FILE":"3524848","ECCENTRICITY":"0.00019730","REV_AT_EPOCH":"130","MEAN_ELEMENT_THEORY":"SGP4","SITE":"AFETR","TIME_SYSTEM":"UTC","MEAN_ANOMALY":"31.6526","BSTAR":"-0.00178500000000","MEAN_MOTION_DOT":"-0.00028585"},{"REF_FRAME":"TEME","TLE_LINE2":"2 51729  53.2179 119.3098 0001839  57.2414 330.2060 15.08858811  1301","CENTER_NAME":"EARTH","EPHEMERIS_TYPE":"0","RA_OF_ASC_NODE":"119.3098","EPOCH":"2022-07-29T22:00:00.999936","RCS_SIZE":"LARGE","OBJECT_NAME":"STARLINK-3523","ELEMENT_SET_NO":"999","DECAY_DATE":null,"MEAN_MOTION_DOT":"-0.00028342","BSTAR":"-0.00176870000000","MEAN_ANOMALY":"330.2060","TIME_SYSTEM":"UTC","SITE":"AFETR","MEAN_ELEMENT_THEORY":"SGP4","REV_AT_EPOCH":"130","FILE":"3524848","ECCENTRICITY":"0.00018390","PERIAPSIS":"538.416","COUNTRY_CODE":"US","INCLINATION":"53.2179","CLASSIFICATION_TYPE":"U","OBJECT_TYPE":"PAYLOAD","SEMIMAJOR_AXIS":"6917.823","NORAD_CAT_ID":"51729","OBJECT_ID":"2022-016R","ARG_OF_PERICENTER":"57.2414","APOAPSIS":"540.960","TLE_LINE1":"1 51729U 22016R   22210.91667824 -.00028342  00000-0 -17687-2 0  9997","PERIOD":"95.436","GP_ID":"209134911","LAUNCH_DATE":"2022-02-21","MEAN_MOTION_DDOT":"0.0000000000000","MEAN_MOTION":"15.08858811"},{"RA_OF_ASC_NODE":"119.3214","EPHEMERIS_TYPE":"0","CENTER_NAME":"EARTH","TLE_LINE2":"2 51730  53.2182 119.3214 0002037  55.4582  71.9825 15.08847791  1307","REF_FRAME":"TEME","DECAY_DATE":null,"ELEMENT_SET_NO":"999","OBJECT_NAME":"STARLINK-3530","RCS_SIZE":"LARGE","EPOCH":"2022-07-29T22:00:00.999936","OBJECT_TYPE":"PAYLOAD","NORAD_CAT_ID":"51730","SEMIMAJOR_AXIS":"6917.857","CLASSIFICATION_TYPE":"U","INCLINATION":"53.2182","COUNTRY_CODE":"US","FILE":"3524848","PERIAPSIS":"538.312","ECCENTRICITY":"0.00020370","REV_AT_EPOCH":"130","MEAN_ELEMENT_THEORY":"SGP4","SITE":"AFETR","TIME_SYSTEM":"UTC","MEAN_ANOMALY":"71.9825","BSTAR":"-0.00171310000000","MEAN_MOTION_DOT":"-0.00027455","MEAN_MOTION":"15.08847791","MEAN_MOTION_DDOT":"0.0000000000000","LAUNCH_DATE":"2022-02-21","GP_ID":"209133677","TLE_LINE1":"1 51730U 22016S   22210.91667824 -.00027455  00000-0 -17131-2 0  9997","PERIOD":"95.437","ARG_OF_PERICENTER":"55.4582","APOAPSIS":"541.131","OBJECT_ID":"2022-016S"},{"EPHEMERIS_TYPE":"0","RA_OF_ASC_NODE":"119.3128","CENTER_NAME":"EARTH","TLE_LINE2":"2 51731  53.2183 119.3128 0001870  59.5737   7.8811 15.08848992  1301","REF_FRAME":"TEME","DECAY_DATE":null,"ELEMENT_SET_NO":"999","OBJECT_NAME":"STARLINK-3514","EPOCH":"2022-07-29T22:00:00.999936","RCS_SIZE":"LARGE","CLASSIFICATION_TYPE":"U","INCLINATION":"53.2183","SEMIMAJOR_AXIS":"6917.853","OBJECT_TYPE":"PAYLOAD","NORAD_CAT_ID":"51731","ECCENTRICITY":"0.00018700","FILE":"3524848","PERIAPSIS":"538.424","COUNTRY_CODE":"US","MEAN_ELEMENT_THEORY":"SGP4","SITE":"AFETR","REV_AT_EPOCH":"130","BSTAR":"-0.00181900000000","MEAN_MOTION_DOT":"-0.00029128","TIME_SYSTEM":"UTC","MEAN_ANOMALY":"7.8811","MEAN_MOTION_DDOT":"0.0000000000000","MEAN_MOTION":"15.08848992","LAUNCH_DATE":"2022-02-21","GP_ID":"209133927","ARG_OF_PERICENTER":"59.5737","APOAPSIS":"541.012","PERIOD":"95.437","TLE_LINE1":"1 51731U 22016T   22210.91667824 -.00029128  00000-0 -18190-2 0  9993","OBJECT_ID":"2022-016T"},{"MEAN_ELEMENT_THEORY":"SGP4","SITE":"AFETR","REV_AT_EPOCH":"130","MEAN_MOTION_DOT":"-0.00046044","BSTAR":"-0.00289290000000","TIME_SYSTEM":"UTC","MEAN_ANOMALY":"89.6242","CLASSIFICATION_TYPE":"U","INCLINATION":"53.2191","OBJECT_TYPE":"PAYLOAD","SEMIMAJOR_AXIS":"6917.859","NORAD_CAT_ID":"51732","FILE":"3524848","ECCENTRICITY":"0.00019060","PERIAPSIS":"538.405","COUNTRY_CODE":"US","ARG_OF_PERICENTER":"57.8266","APOAPSIS":"541.042","TLE_LINE1":"1 51732U 22016U   22210.91667824 -.00046044  00000-0 -28929-2 0  9991","PERIOD":"95.437","OBJECT_ID":"2022-016U","MEAN_MOTION_DDOT":"0.0000000000000","MEAN_MOTION":"15.08847128","LAUNCH_DATE":"2022-02-21","GP_ID":"209134676","TLE_LINE2":"2 51732  53.2191 119.3280 0001906  57.8266  89.6242 15.08847128  1304","REF_FRAME":"TEME","EPHEMERIS_TYPE":"0","RA_OF_ASC_NODE":"119.3280","CENTER_NAME":"EARTH","OBJECT_NAME":"STARLINK-3518","EPOCH":"2022-07-29T22:00:00.999936","RCS_SIZE":"LARGE","DECAY_DATE":null,"ELEMENT_SET_NO":"999"},{"GP_ID":"209135411","LAUNCH_DATE":"2022-02-21","MEAN_MOTION":"15.08850436","MEAN_MOTION_DDOT":"0.0000000000000","OBJECT_ID":"2022-016V","PERIOD":"95.437","TLE_LINE1":"1 51733U 22016V   22210.91667824 -.00050885  00000-0 -32008-2 0  9993","APOAPSIS":"541.175","ARG_OF_PERICENTER":"52.6683","COUNTRY_CODE":"US","PERIAPSIS":"538.252","FILE":"3524848","ECCENTRICITY":"0.00021120","OBJECT_TYPE":"PAYLOAD","NORAD_CAT_ID":"51733","SEMIMAJOR_AXIS":"6917.848","CLASSIFICATION_TYPE":"U","INCLINATION":"53.2181","TIME_SYSTEM":"UTC","MEAN_ANOMALY":"54.8011","BSTAR":"-0.00320080000000","MEAN_MOTION_DOT":"-0.00050885","REV_AT_EPOCH":"130","MEAN_ELEMENT_THEORY":"SGP4","SITE":"AFETR","ELEMENT_SET_NO":"999","DECAY_DATE":null,"RCS_SIZE":"LARGE","EPOCH":"2022-07-29T22:00:00.999936","OBJECT_NAME":"STARLINK-3525","CENTER_NAME":"EARTH","RA_OF_ASC_NODE":"119.3106","EPHEMERIS_TYPE":"0","REF_FRAME":"TEME","TLE_LINE2":"2 51733  53.2181 119.3106 0002112  52.6683  54.8011 15.08850436  1301"},{"PERIOD":"95.437","TLE_LINE1":"1 51734U 22016W   22210.91667824 -.00041218  00000-0 -25859-2 0  9990","ARG_OF_PERICENTER":"56.2178","APOAPSIS":"541.108","OBJECT_ID":"2022-016W","MEAN_MOTION":"15.08848134","MEAN_MOTION_DDOT":"0.0000000000000","LAUNCH_DATE":"2022-02-21","GP_ID":"209134177","REV_AT_EPOCH":"130","MEAN_ELEMENT_THEORY":"SGP4","SITE":"AFETR","TIME_SYSTEM":"UTC","MEAN_ANOMALY":"151.2301","BSTAR":"-0.00258590000000","MEAN_MOTION_DOT":"-0.00041218","OBJECT_TYPE":"PAYLOAD","NORAD_CAT_ID":"51734","SEMIMAJOR_AXIS":"6917.856","CLASSIFICATION_TYPE":"U","INCLINATION":"53.2170","COUNTRY_CODE":"US","FILE":"3524848","ECCENTRICITY":"0.00020060","PERIAPSIS":"538.333","OBJECT_NAME":"STARLINK-3450","RCS_SIZE":"LARGE","EPOCH":"2022-07-29T22:00:00.999936","DECAY_DATE":null,"ELEMENT_SET_NO":"999","TLE_LINE2":"2 51734  53.2170 119.3165 0002006  56.2178 151.2301 15.08848134  1302","REF_FRAME":"TEME","RA_OF_ASC_NODE":"119.3165","EPHEMERIS_TYPE":"0","CENTER_NAME":"EARTH"}];
